
# Worst residual: 10.17 km
# MJD 56525.000000 (2013 Aug 21  0:00)
1964-040A = NORAD 00836 = Vela 2A
1 00836U 64040A   13233.49922241  .00000000  00000-0  00000-0 0  4575
2 00836 082.7581 332.0595 3857312 282.3698 182.5350 00.23902915    09

# Worst residual: 7.78 km
# MJD 56526.000000 (2013 Aug 22  0:00)
1964-040A = NORAD 00836 = Vela 2A
1 00836U 64040A   13234.49922241  .00000000  00000-0  00000-0 0  4576
2 00836 082.7550 332.0482 3852558 282.3092 268.6609 00.23899326    09

# Worst residual: 9.98 km
# MJD 56527.000000 (2013 Aug 23  0:00)
1964-040A = NORAD 00836 = Vela 2A
1 00836U 64040A   13235.49922241  .00000000  00000-0  00000-0 0  4577
2 00836 082.7571 332.0305 3840336 282.3915 354.6497 00.23960497    00

# Worst residual: 4.00 km
# MJD 56528.000000 (2013 Aug 24  0:00)
1964-040A = NORAD 00836 = Vela 2A
1 00836U 64040A   13236.49922241  .00000000  00000-0  00000-0 0  4578
2 00836 082.7506 332.0107 3849277 282.3931 080.7279 00.23900246    00

# Worst residual: 6.93 km
# MJD 56529.000000 (2013 Aug 25  0:00)
1964-040A = NORAD 00836 = Vela 2A
1 00836U 64040A   13237.49922241  .00000000  00000-0  00000-0 0  4579
2 00836 082.7479 331.9879 3848102 282.2492 167.0412 00.23919467    03

# Worst residual: 3.21 km
# MJD 56530.000000 (2013 Aug 26  0:00)
1964-040A = NORAD 00836 = Vela 2A
1 00836U 64040A   13238.49922241  .00000000  00000-0  00000-0 0  4570
2 00836 082.7406 331.9865 3845299 282.1617 253.2957 00.23916448    08

# Worst residual: 10.28 km
# MJD 56531.000000 (2013 Aug 27  0:00)
1964-040A = NORAD 00836 = Vela 2A
1 00836U 64040A   13239.49922241  .00000000  00000-0  00000-0 0  4571
2 00836 082.7454 331.9726 3836491 282.1745 339.3630 00.23944913    05

# Worst residual: 4.64 km
# MJD 56532.000000 (2013 Aug 28  0:00)
1964-040A = NORAD 00836 = Vela 2A
1 00836U 64040A   13240.49922241  .00000000  00000-0  00000-0 0  4573
2 00836 082.7353 331.9700 3840140 282.0786 065.5571 00.23916538    09

# Worst residual: 4.98 km
# MJD 56533.000000 (2013 Aug 29  0:00)
1964-040A = NORAD 00836 = Vela 2A
1 00836U 64040A   13241.49922241  .00000000  00000-0  00000-0 0  4574
2 00836 082.7350 331.9527 3837256 282.0158 151.7669 00.23918694    01

# Worst residual: 3.35 km
# MJD 56534.000000 (2013 Aug 30  0:00)
1964-040A = NORAD 00836 = Vela 2A
1 00836U 64040A   13242.49922241  .00000000  00000-0  00000-0 0  4575
2 00836 082.7384 331.9283 3834963 281.9497 237.9923 00.23919416    06

# Worst residual: 6.41 km
# MJD 56535.000000 (2013 Aug 31  0:00)
1964-040A = NORAD 00836 = Vela 2A
1 00836U 64040A   13243.49922241  .00000000  00000-0  00000-0 0  4576
2 00836 082.7557 331.9040 3829260 282.0149 324.0366 00.23949815    04

# Worst residual: 9.04 km
# MJD 56536.000000 (2013 Sep  1  0:00)
1964-040A = NORAD 00836 = Vela 2A
1 00836U 64040A   13244.49922241  .00000000  00000-0  00000-0 0  4577
2 00836 082.7489 331.9047 3838912 282.0371 050.1239 00.23870219    03

# Worst residual: 14.89 km
# MJD 56537.000000 (2013 Sep  2  0:00)
1964-040A = NORAD 00836 = Vela 2A
1 00836U 64040A   13245.49922241  .00000000  00000-0  00000-0 0  4578
2 00836 082.7483 331.8895 3832448 281.8798 136.4050 00.23899771    08

# Worst residual: 6.76 km
# MJD 56538.000000 (2013 Sep  3  0:00)
1964-040A = NORAD 00836 = Vela 2A
1 00836U 64040A   13246.49922241  .00000000  00000-0  00000-0 0  4579
2 00836 082.7477 331.8817 3830139 281.6644 222.8735 00.23904571    03

# Worst residual: 12.63 km
# MJD 56539.000000 (2013 Sep  4  0:00)
1964-040A = NORAD 00836 = Vela 2A
1 00836U 64040A   13247.49922241  .00000000  00000-0  00000-0 0  4570
2 00836 082.7505 331.8620 3817602 281.6664 308.8270 00.23915507    09

# Worst residual: 13.58 km
# MJD 56540.000000 (2013 Sep  5  0:00)
1964-040A = NORAD 00836 = Vela 2A
1 00836U 64040A   13248.49922241  .00000000  00000-0  00000-0 0  4571
2 00836 082.7519 331.8432 3819071 281.7332 034.9024 00.23898163    02

# Worst residual: 10.76 km
# MJD 56541.000000 (2013 Sep  6  0:00)
1964-040A = NORAD 00836 = Vela 2A
1 00836U 64040A   13249.49922241  .00000000  00000-0  00000-0 0  4572
2 00836 082.7572 331.8282 3817825 281.7179 120.9475 00.23887265    05

# Worst residual: 7.82 km
# MJD 56542.000000 (2013 Sep  7  0:00)
1964-040A = NORAD 00836 = Vela 2A
1 00836U 64040A   13250.49922241  .00000000  00000-0  00000-0 0  4574
2 00836 082.7583 331.8061 3821965 281.5068 207.3859 00.23915436    05

# Worst residual: 9.10 km
# MJD 56543.000000 (2013 Sep  8  0:00)
1964-040A = NORAD 00836 = Vela 2A
1 00836U 64040A   13251.49922241  .00000000  00000-0  00000-0 0  4575
2 00836 082.7562 331.7896 3821909 281.4750 293.5682 00.23924839    00

# Worst residual: 15.39 km
# MJD 56544.000000 (2013 Sep  9  0:00)
1964-040A = NORAD 00836 = Vela 2A
1 00836U 64040A   13252.49922241  .00000000  00000-0  00000-0 0  4576
2 00836 082.7571 331.7782 3809692 281.3980 019.7772 00.23970304    09

# Worst residual: 8.24 km
# MJD 56545.000000 (2013 Sep 10  0:00)
1964-040A = NORAD 00836 = Vela 2A
1 00836U 64040A   13253.49922241  .00000000  00000-0  00000-0 0  4577
2 00836 082.7480 331.7568 3820904 281.4012 105.8275 00.23921443    01

# Worst residual: 3.98 km
# MJD 56546.000000 (2013 Sep 11  0:00)
1964-040A = NORAD 00836 = Vela 2A
1 00836U 64040A   13254.49922241  .00000000  00000-0  00000-0 0  4578
2 00836 082.7463 331.7219 3820779 281.4288 191.8529 00.23917032    06

# Worst residual: 9.30 km
# MJD 56547.000000 (2013 Sep 12  0:00)
1964-040A = NORAD 00836 = Vela 2A
1 00836U 64040A   13255.49922241  .00000000  00000-0  00000-0 0  4579
2 00836 082.7539 331.6947 3817672 281.5211 277.8039 00.23939059    06

# Worst residual: 16.98 km
# MJD 56548.000000 (2013 Sep 13  0:00)
1964-040A = NORAD 00836 = Vela 2A
1 00836U 64040A   13256.49922241  .00000000  00000-0  00000-0 0  4570
2 00836 082.7729 331.6905 3808786 281.4595 004.0075 00.23956660    08

# Worst residual: 4.47 km
# MJD 56549.000000 (2013 Sep 14  0:00)
1964-040A = NORAD 00836 = Vela 2A
1 00836U 64040A   13257.49922241  .00000000  00000-0  00000-0 0  4571
2 00836 082.7524 331.6762 3814577 281.4747 090.0903 00.23904133    09

# Worst residual: 5.61 km
# MJD 56550.000000 (2013 Sep 15  0:00)
1964-040A = NORAD 00836 = Vela 2A
1 00836U 64040A   13258.49922241  .00000000  00000-0  00000-0 0  4572
2 00836 082.7493 331.6497 3806890 281.3785 176.3637 00.23904156    06

# Worst residual: 8.00 km
# MJD 56551.000000 (2013 Sep 16  0:00)
1964-040A = NORAD 00836 = Vela 2A
1 00836U 64040A   13259.49922241  .00000000  00000-0  00000-0 0  4573
2 00836 082.7477 331.6350 3802648 281.3610 262.4244 00.23905536    04

# Worst residual: 8.98 km
# MJD 56552.000000 (2013 Sep 17  0:00)
1964-040A = NORAD 00836 = Vela 2A
1 00836U 64040A   13260.49922241  .00000000  00000-0  00000-0 0  4575
2 00836 082.7467 331.6179 3790054 281.4508 348.4044 00.23964923    04

# Worst residual: 4.65 km
# MJD 56553.000000 (2013 Sep 18  0:00)
1964-040A = NORAD 00836 = Vela 2A
1 00836U 64040A   13261.49922241  .00000000  00000-0  00000-0 0  4576
2 00836 082.7487 331.5992 3803390 281.4781 074.4236 00.23877684    05
